{
  "type": "FeatureCollection",
  "features": [
    {
      "type": "Feature",
      "properties": {
        "norad_id": 38833,
        "name": "GPS BIIF-3  (PRN 24)",
        "group": "gps-ops",
        "lat": -20.12120985285745,
        "lon": -13.387963263526185,
        "alt_km": 20545.314531256012,
        "timestamp": "2025-12-20T14:38:02.228877+00:00",
        "meta_object_name": "GPS BIIF-3  (PRN 24)",
        "meta_object_id": "2012-053A",
        "meta_epoch": "2025-12-19T07:58:55.415712",
        "meta_mean_motion": 2.0056508,
        "meta_eccentricity": 0.0176,
        "meta_inclination": 53.559,
        "meta_ra_of_asc_node": 150.9686,
        "meta_arg_of_pericenter": 64.0969,
        "meta_mean_anomaly": 297.6893,
        "meta_ephemeris_type": 0,
        "meta_classification_type": "U",
        "meta_norad_cat_id": 38833,
        "meta_element_set_no": 999,
        "meta_rev_at_epoch": 9583,
        "meta_bstar": 0,
        "meta_mean_motion_dot": 5.7e-07,
        "meta_mean_motion_ddot": 0,
        "tle_line1": "1 38833U 12053A   25353.33258583  .00000057  00000+0  00000+0 0  9991",
        "tle_line2": "2 38833  53.5590 150.9686 0176000  64.0969 297.6893  2.00565080 95832"
      },
      "geometry": {
        "type": "Point",
        "coordinates": [
          -13.387963263526185,
          -20.12120985285745
        ]
      }
    },
    {
      "type": "Feature",
      "properties": {
        "norad_id": 39166,
        "name": "GPS BIIF-4  (PRN 27)",
        "group": "gps-ops",
        "lat": -44.95462899869052,
        "lon": -128.81229718732794,
        "alt_km": 20300.068228147902,
        "timestamp": "2025-12-20T14:38:02.228888+00:00",
        "meta_object_name": "GPS BIIF-4  (PRN 27)",
        "meta_object_id": "2013-023A",
        "meta_epoch": "2025-12-19T04:43:12.887616",
        "meta_mean_motion": 2.00564719,
        "meta_eccentricity": 0.0138305,
        "meta_inclination": 54.6464,
        "meta_ra_of_asc_node": 276.3057,
        "meta_arg_of_pericenter": 48.6894,
        "meta_mean_anomaly": 312.5202,
        "meta_ephemeris_type": 0,
        "meta_classification_type": "U",
        "meta_norad_cat_id": 39166,
        "meta_element_set_no": 999,
        "meta_rev_at_epoch": 9227,
        "meta_bstar": 0,
        "meta_mean_motion_dot": -2.9e-07,
        "meta_mean_motion_ddot": 0,
        "tle_line1": "1 39166U 13023A   25353.19667694 -.00000029  00000+0  00000+0 0  9990",
        "tle_line2": "2 39166  54.6464 276.3057 0138305  48.6894 312.5202  2.00564719 92274"
      },
      "geometry": {
        "type": "Point",
        "coordinates": [
          -128.81229718732794,
          -44.95462899869052
        ]
      }
    },
    {
      "type": "Feature",
      "properties": {
        "norad_id": 39533,
        "name": "GPS BIIF-5  (PRN 30)",
        "group": "gps-ops",
        "lat": -41.232418137039325,
        "lon": 116.34947722902805,
        "alt_km": 20143.91552989599,
        "timestamp": "2025-12-20T14:38:02.228899+00:00",
        "meta_object_name": "GPS BIIF-5  (PRN 30)",
        "meta_object_id": "2014-008A",
        "meta_epoch": "2025-12-17T16:40:23.348352",
        "meta_mean_motion": 2.00559499,
        "meta_eccentricity": 0.00799187,
        "meta_inclination": 53.633,
        "meta_ra_of_asc_node": 156.722,
        "meta_arg_of_pericenter": 226.3473,
        "meta_mean_anomaly": 132.9898,
        "meta_ephemeris_type": 0,
        "meta_classification_type": "U",
        "meta_norad_cat_id": 39533,
        "meta_element_set_no": 999,
        "meta_rev_at_epoch": 8604,
        "meta_bstar": 0,
        "meta_mean_motion_dot": 7.4e-07,
        "meta_mean_motion_ddot": 0,
        "tle_line1": "1 39533U 14008A   25351.69471468  .00000074  00000+0  00000+0 0  9996",
        "tle_line2": "2 39533  53.6330 156.7220 0079918 226.3473 132.9898  2.00559499 86040"
      },
      "geometry": {
        "type": "Point",
        "coordinates": [
          116.34947722902805,
          -41.232418137039325
        ]
      }
    },
    {
      "type": "Feature",
      "properties": {
        "norad_id": 39741,
        "name": "GPS BIIF-6  (PRN 06)",
        "group": "gps-ops",
        "lat": 55.273219267824906,
        "lon": 86.18213924817317,
        "alt_km": 20257.224270656985,
        "timestamp": "2025-12-20T14:38:02.228910+00:00",
        "meta_object_name": "GPS BIIF-6  (PRN 06)",
        "meta_object_id": "2014-026A",
        "meta_epoch": "2025-12-18T23:24:45.525888",
        "meta_mean_motion": 2.00561009,
        "meta_eccentricity": 0.00393411,
        "meta_inclination": 56.5812,
        "meta_ra_of_asc_node": 338.5339,
        "meta_arg_of_pericenter": 319.0443,
        "meta_mean_anomaly": 40.6665,
        "meta_ephemeris_type": 0,
        "meta_classification_type": "U",
        "meta_norad_cat_id": 39741,
        "meta_element_set_no": 999,
        "meta_rev_at_epoch": 8492,
        "meta_bstar": 0,
        "meta_mean_motion_dot": -8.1e-07,
        "meta_mean_motion_ddot": 0,
        "tle_line1": "1 39741U 14026A   25352.97552692 -.00000081  00000+0  00000+0 0  9997",
        "tle_line2": "2 39741  56.5812 338.5339 0039341 319.0443  40.6665  2.00561009 84924"
      },
      "geometry": {
        "type": "Point",
        "coordinates": [
          86.18213924817317,
          55.273219267824906
        ]
      }
    },
    {
      "type": "Feature",
      "properties": {
        "norad_id": 40105,
        "name": "GPS BIIF-7  (PRN 09)",
        "group": "gps-ops",
        "lat": 29.707571711097675,
        "lon": 118.8970908887638,
        "alt_km": 20167.010181136222,
        "timestamp": "2025-12-20T14:38:02.228921+00:00",
        "meta_object_name": "GPS BIIF-7  (PRN 09)",
        "meta_object_id": "2014-045A",
        "meta_epoch": "2025-12-18T01:34:21.644256",
        "meta_mean_motion": 2.00572958,
        "meta_eccentricity": 0.00325491,
        "meta_inclination": 55.2322,
        "meta_ra_of_asc_node": 95.6864,
        "meta_arg_of_pericenter": 120.0469,
        "meta_mean_anomaly": 240.2601,
        "meta_ephemeris_type": 0,
        "meta_classification_type": "U",
        "meta_norad_cat_id": 40105,
        "meta_element_set_no": 999,
        "meta_rev_at_epoch": 8244,
        "meta_bstar": 0,
        "meta_mean_motion_dot": -3.8e-07,
        "meta_mean_motion_ddot": 0,
        "tle_line1": "1 40105U 14045A   25352.06552829 -.00000038  00000+0  00000+0 0  9998",
        "tle_line2": "2 40105  55.2322  95.6864 0032549 120.0469 240.2601  2.00572958 82445"
      },
      "geometry": {
        "type": "Point",
        "coordinates": [
          118.8970908887638,
          29.707571711097675
        ]
      }
    },
    {
      "type": "Feature",
      "properties": {
        "norad_id": 40294,
        "name": "GPS BIIF-8  (PRN 03)",
        "group": "gps-ops",
        "lat": 42.42582506489525,
        "lon": -178.76599309597975,
        "alt_km": 20088.779317000764,
        "timestamp": "2025-12-20T14:38:02.228932+00:00",
        "meta_object_name": "GPS BIIF-8  (PRN 03)",
        "meta_object_id": "2014-068A",
        "meta_epoch": "2025-12-19T10:32:44.453760",
        "meta_mean_motion": 2.00565341,
        "meta_eccentricity": 0.0060808,
        "meta_inclination": 56.8627,
        "meta_ra_of_asc_node": 37.8869,
        "meta_arg_of_pericenter": 69.0507,
        "meta_mean_anomaly": 291.6667,
        "meta_ephemeris_type": 0,
        "meta_classification_type": "U",
        "meta_norad_cat_id": 40294,
        "meta_element_set_no": 999,
        "meta_rev_at_epoch": 8160,
        "meta_bstar": 0,
        "meta_mean_motion_dot": -6.1e-07,
        "meta_mean_motion_ddot": 0,
        "tle_line1": "1 40294U 14068A   25353.43940340 -.00000061  00000+0  00000+0 0  9999",
        "tle_line2": "2 40294  56.8627  37.8869 0060808  69.0507 291.6667  2.00565341 81603"
      },
      "geometry": {
        "type": "Point",
        "coordinates": [
          -178.76599309597975,
          42.42582506489525
        ]
      }
    },
    {
      "type": "Feature",
      "properties": {
        "norad_id": 40534,
        "name": "GPS BIIF-9  (PRN 26)",
        "group": "gps-ops",
        "lat": 24.98791843314914,
        "lon": -128.00071537056863,
        "alt_km": 19895.784705291946,
        "timestamp": "2025-12-20T14:38:02.228944+00:00",
        "meta_object_name": "GPS BIIF-9  (PRN 26)",
        "meta_object_id": "2015-013A",
        "meta_epoch": "2025-12-19T01:41:54.527136",
        "meta_mean_motion": 2.00562262,
        "meta_eccentricity": 0.0107309,
        "meta_inclination": 53.1969,
        "meta_ra_of_asc_node": 211.6279,
        "meta_arg_of_pericenter": 38.6346,
        "meta_mean_anomaly": 322.2232,
        "meta_ephemeris_type": 0,
        "meta_classification_type": "U",
        "meta_norad_cat_id": 40534,
        "meta_element_set_no": 999,
        "meta_rev_at_epoch": 7821,
        "meta_bstar": 0,
        "meta_mean_motion_dot": 8.5e-07,
        "meta_mean_motion_ddot": 0,
        "tle_line1": "1 40534U 15013A   25353.07076999  .00000085  00000+0  00000+0 0  9992",
        "tle_line2": "2 40534  53.1969 211.6279 0107309  38.6346 322.2232  2.00562262 78218"
      },
      "geometry": {
        "type": "Point",
        "coordinates": [
          -128.00071537056863,
          24.98791843314914
        ]
      }
    }
  ]
}